FENGYUN 1C DEB          
1 31175U 99025BJD 17345.09027869  .00001081  00000-0  56896-3 0  9990
2 31175  98.4368  80.5193 0144303  32.5625  87.5582 14.10716447241277
